IRIDIUM 119             
1 42959U 17061E   24172.97595710  .00000029  00000+0  32177-5 0  9998
2 42959  86.3969 328.7313 0001970  98.1318 262.0101 14.34217468350725
IRIDIUM 107             
1 42960U 17061F   24172.92521687  .00000339  00000+0  11405-3 0  9990
2 42960  86.3970 328.7694 0002119  98.1965 261.9471 14.34216936350722
IRIDIUM 132             
1 42961U 17061G   24172.93155954  .00000038  00000+0  64245-5 0  9990
2 42961  86.3969 328.7515 0002282  99.9881 260.1572 14.34217711350725
IRIDIUM 136             
1 42962U 17061H   24172.96326957  .00000320  00000+0  10734-3 0  9993
2 42962  86.3969 328.7414 0001810  95.1765 264.9638 14.34219370350749
IRIDIUM 139             
1 42963U 17061J   24172.96961444  .00000259  00000+0  85357-4 0  9995
2 42963  86.3971 328.7890 0002193 102.0810 258.0632 14.34219079350750
IRIDIUM 125             
1 42964U 17061K   24172.95692877  .00000062  00000+0  15035-4 0  9994
2 42964  86.3971 328.8420 0001854 103.0891 257.0512 14.34217512350761
IRIDIUM 135             
1 43070U 17083A   24172.79151899  .00000157  00000+0  49074-4 0  9998
2 43070  86.3964 265.5606 0002550  89.2975 270.8513 14.34218286340039
IRIDIUM 138             
1 43071U 17083B   24172.74711995  .00000037  00000+0  60482-5 0  9997
2 43071  86.3953 265.2958 0001901  97.7955 262.3457 14.34216315340018
